NUVIEW BRAVO            
1 62457U 24252D   26156.47549220 -.00000203  00000+0  00000+0 0  9996
2 62457   0.0717 142.0605 0001950 332.9459 226.9737  1.00275393  3671
THURAYA-4               
1 62483U 25001A   26156.64330264  .00000152  00000+0  00000+0 0  9995
2 62483   0.0247  62.1368 0000134  34.0048  73.8358  1.00272730  4067
SHIJIAN-25 (SJ-25)      
1 62485U 25002A   26156.77509272 -.00000337  00000+0  00000+0 0  9995
2 62485   5.0854  61.2332 0051707 172.8956  66.4068  1.00277925  5248
TJS-14                  
1 62804U 25017A   26156.70941198  .00000127  00000+0  00000+0 0  9992
2 62804   0.8093 294.7998 0000586 274.2556 318.8408  1.00270394  5159
SPAINSAT NG I           
1 62852U 25021A   26156.64026927  .00000164  00000+0  00000+0 0  9998
2 62852   0.0133 333.1060 0000363 165.3472  15.1280  1.00271582  3879
QZS-6 (MICHIBIKI-6)     
1 62876U 25023A   26156.72369464 -.00000221  00000+0  00000+0 0  9996
2 62876   0.0237  38.1902 0002100  44.7320 162.2366  1.00275013  4839
ZHONGXING-10R           
1 63075U 25036A   26156.58121675 -.00000340  00000+0  00000+0 0  9998
2 63075   0.0494 252.8497 0003326 247.2572  73.6869  1.00271615  4848
TJS-15                  
1 63157U 25045A   26156.77668247 -.00000252  00000+0  00000+0 0  9993
2 63157   0.2791  85.3589 0005498 299.3816 243.4602  1.00269196  4644
TIANLIAN 2-04           
1 63361U 25062A   26156.77769440 -.00000124  00000+0  00000+0 0  9994
2 63361   4.4048 274.6028 0031411  10.7426 328.8955  1.00270703  4486
TJS-16                  
1 63397U 25064A   26156.74636205 -.00000092  00000+0  00000+0 0  9998
2 63397   1.0680  81.5215 0003711 293.6396 308.3037  1.00272470  4277
TJS-17                  
1 63524U 25073A   26156.71576015 -.00000057  00000+0  00000+0 0  9990
2 63524   1.0338  82.7910 0002492 301.5057 292.0362  1.00272445  4173
TIANLIAN 2-05           
1 63662U 25084A   26156.56725744  .00000136  00000+0  00000+0 0  9990
2 63662   4.4814 279.9668 0003589 145.2192  53.4368  1.00272832  4268
TJS-19                  
1 63924U 25097A   26156.73378144 -.00000265  00000+0  00000+0 0  9996
2 63924   3.3063 317.2446 0001915 232.6164 109.7582  1.00270474  4021
CHINASAT 3B             
1 64062U 25106A   26156.61155694 -.00000032  00000+0  00000+0 0  9993
2 64062   0.0295  97.2553 0002886  13.4241 170.8480  1.00272768  3943
SXM-10                  
1 64290U 25122A   26156.68282816 -.00000004  00000+0  00000+0 0  9997
2 64290   0.0192  21.0679 0001792 356.2544   6.4417  1.00271030  3568
COSMOS 2589             
1 64467U 25131A   26156.77690419 -.00000278  00000+0  00000+0 0  9998
2 64467   0.0481  66.9960 0001407  89.5701 115.3039  1.00268094  3443
CHINASAT 9C             
1 64470U 25132A   26156.71989226 -.00000235  00000+0  00000+0 0  9997
2 64470   0.0329 261.7501 0002987 173.6697 170.0948  1.00274252  4033
MTG-S1                  
1 64723U 25143A   26156.63385590 -.00000019  00000+0  00000+0 0  9995
2 64723   0.6135 336.3764 0001149  35.9917 106.4082  1.00271629  3305
DROR 1                  
1 64784U 25148A   26156.70499193 -.00000022  00000+0  00000+0 0  9994
2 64784   0.0096 325.6713 0003014  65.6732 112.5800  1.00271746  3187
SHIYAN-29               
1 65486U 25196A   26156.60293181 -.00000259  00000+0  00000+0 0  9997
2 65486  28.8088  18.6830 0010744 170.7573  15.9304  1.00258117  2769
NUSANTARA LIMA (NUSANT*)
1 65588U 25205A   26156.74137203 -.00000345  00000+0  00000+0 0  9994
2 65588   0.0368 140.7154 0000565 338.9844 154.2126  1.00270371  2608
TJS-20                  
1 66142U 25238A   26156.50424602  .00000035  00000+0  00000+0 0  9998
2 66142   5.4964 299.5969 0004817 154.3860  43.8610  1.00272212  2219
CMS-03 (GSAT-7R)        
1 66311U 25249B   26155.43716959 -.00000065  00000+0  00000+0 0  9992
2 66311   0.0345 261.3999 0002859 141.5029  81.3454  1.00272551  2220
VIASAT-3 F2             
1 66454U 25261A   26156.61886249 -.00000221  00000+0  00000+0 0  9999
2 66454   0.0434 148.6947 0000242 289.3461 319.8013  1.00271458  2676
SHIJIAN-28 (SJ-28)      
1 66549U 25277A   26156.69109029 -.00000349  00000+0  00000+0 0  9994
2 66549   4.5687 272.3157 0000388   2.0138 345.4884  1.00269865  2030
TJS-22                  
1 66990U 25290A   26155.90887615  .00000006  00000+0  00000+0 0  9995
2 66990   1.5579 286.4271 0002019 333.7836  26.7765  1.00271570  1900
TJS-23                  
1 67226U 25306A   26156.63369345  .00000027  00000+0  00000+0 0  9995
2 67226   5.6138 297.5506 0004998 163.6024 196.5125  1.00272616  1773
FENGYUN 4C              
1 67246U 25312A   26156.01923115 -.00000311  00000+0  00000+0 0  9994
2 67246   0.0395 149.4658 0000636  17.9429 225.9691  1.00270463  1657
SHIJIAN-29A (SJ-29A)    
1 67302U 25315A   26156.77861933 -.00000055  00000+0  00000+0 0  9997
2 67302   3.3681  95.3928 0003353  19.4654 132.9108  1.00270166  1503
SHIJIAN-29B (SJ-29B)    
1 67403U 25315C   26156.77862008 -.00000055  00000+0  00000+0 0  9993
2 67403   3.3671  95.3839 0003575  21.9532 130.4760  1.00270176  1579
ELEKTRO-L 5             
1 67756U 26028A   26156.08457971 -.00000085  00000+0  00000+0 0  9992
2 67756   0.2741 307.5565 0001540 183.1862 229.2766  1.00271294  1132
JAM-E JAM 1             
1 67757U 26028B   26156.71249362  .00000168  00000+0  00000+0 0  9997
2 67757   0.2851 298.9593 0000763 301.3817 304.1996  1.00270739  1006
