OBJECT_NAME,OBJECT_ID,EPOCH,MEAN_MOTION,ECCENTRICITY,INCLINATION,RA_OF_ASC_NODE,ARG_OF_PERICENTER,MEAN_ANOMALY,EPHEMERIS_TYPE,CLASSIFICATION_TYPE,NORAD_CAT_ID,ELEMENT_SET_NO,REV_AT_EPOCH,BSTAR,MEAN_MOTION_DOT,MEAN_MOTION_DDOT
NUVIEW BRAVO,2024-252D,2026-06-05T11:24:42.526080,1.00275393,.000195,0.0717,142.0605,332.9459,226.9737,0,U,62457,999,367,0,-.203E-5,0
THURAYA-4,2025-001A,2026-06-05T15:26:21.348096,1.00272730,.0000134,0.0247,62.1368,34.0048,73.8358,0,U,62483,999,406,0,.152E-5,0
SHIJIAN-25 (SJ-25),2025-002A,2026-06-05T18:36:08.011008,1.00277925,.0051707,5.0854,61.2332,172.8956,66.4068,0,U,62485,999,524,0,-.337E-5,0
TJS-14,2025-017A,2026-06-05T17:01:33.195072,1.00270394,.0000586,0.8093,294.7998,274.2556,318.8408,0,U,62804,999,515,0,.127E-5,0
SPAINSAT NG I,2025-021A,2026-06-05T15:21:59.264928,1.00271582,.0000363,0.0133,333.1060,165.3472,15.1280,0,U,62852,999,387,0,.164E-5,0
QZS-6 (MICHIBIKI-6),2025-023A,2026-06-05T17:22:07.216896,1.00275013,.00021,0.0237,38.1902,44.7320,162.2366,0,U,62876,999,483,0,-.221E-5,0
ZHONGXING-10R,2025-036A,2026-06-05T13:56:57.127200,1.00271615,.0003326,0.0494,252.8497,247.2572,73.6869,0,U,63075,999,484,0,-.34E-5,0
TJS-15,2025-045A,2026-06-05T18:38:25.365408,1.00269196,.0005498,0.2791,85.3589,299.3816,243.4602,0,U,63157,999,464,0,-.252E-5,0
TIANLIAN 2-04,2025-062A,2026-06-05T18:39:52.796160,1.00270703,.0031411,4.4048,274.6028,10.7426,328.8955,0,U,63361,999,448,0,-.124E-5,0
TJS-16,2025-064A,2026-06-05T17:54:45.681120,1.00272470,.0003711,1.0680,81.5215,293.6396,308.3037,0,U,63397,999,427,0,-.92E-6,0
TJS-17,2025-073A,2026-06-05T17:10:41.676960,1.00272445,.0002492,1.0338,82.7910,301.5057,292.0362,0,U,63524,999,417,0,-.57E-6,0
TIANLIAN 2-05,2025-084A,2026-06-05T13:36:51.042816,1.00272832,.0003589,4.4814,279.9668,145.2192,53.4368,0,U,63662,999,426,0,.136E-5,0
TJS-19,2025-097A,2026-06-05T17:36:38.716416,1.00270474,.0001915,3.3063,317.2446,232.6164,109.7582,0,U,63924,999,402,0,-.265E-5,0
CHINASAT 3B,2025-106A,2026-06-05T14:40:38.519616,1.00272768,.0002886,0.0295,97.2553,13.4241,170.8480,0,U,64062,999,394,0,-.32E-6,0
SXM-10,2025-122A,2026-06-05T16:23:16.353024,1.00271030,.0001792,0.0192,21.0679,356.2544,6.4417,0,U,64290,999,356,0,-.4E-7,0
COSMOS 2589,2025-131A,2026-06-05T18:38:44.522016,1.00268094,.0001407,0.0481,66.9960,89.5701,115.3039,0,U,64467,999,344,0,-.278E-5,0
CHINASAT 9C,2025-132A,2026-06-05T17:16:38.691264,1.00274252,.0002987,0.0329,261.7501,173.6697,170.0948,0,U,64470,999,403,0,-.235E-5,0
MTG-S1,2025-143A,2026-06-05T15:12:45.149760,1.00271629,.0001149,0.6135,336.3764,35.9917,106.4082,0,U,64723,999,330,0,-.19E-6,0
DROR 1,2025-148A,2026-06-05T16:55:11.302752,1.00271746,.0003014,0.0096,325.6713,65.6732,112.5800,0,U,64784,999,318,0,-.22E-6,0
SHIYAN-29,2025-196A,2026-06-05T14:28:13.308384,1.00258117,.0010744,28.8088,18.6830,170.7573,15.9304,0,U,65486,999,276,0,-.259E-5,0
NUSANTARA LIMA (NUSANTARA 5),2025-205A,2026-06-05T17:47:34.543392,1.00270371,.0000565,0.0368,140.7154,338.9844,154.2126,0,U,65588,999,260,0,-.345E-5,0
TJS-20,2025-238A,2026-06-05T12:06:06.856128,1.00272212,.0004817,5.4964,299.5969,154.3860,43.8610,0,U,66142,999,221,0,.35E-6,0
CMS-03 (GSAT-7R),2025-249B,2026-06-04T10:29:31.452576,1.00272551,.00028595,0.0345,261.3999,141.5029,81.3454,0,U,66311,999,222,0,-.65E-6,0
VIASAT-3 F2,2025-261A,2026-06-05T14:51:09.719136,1.00271458,.0000242,0.0434,148.6947,289.3461,319.8013,0,U,66454,999,267,0,-.221E-5,0
SHIJIAN-28 (SJ-28),2025-277A,2026-06-05T16:35:10.201056,1.00269865,.0000388,4.5687,272.3157,2.0138,345.4884,0,U,66549,999,203,0,-.349E-5,0
TJS-22,2025-290A,2026-06-04T21:48:46.899360,1.00271570,.0002019,1.5579,286.4271,333.7836,26.7765,0,U,66990,999,190,0,.6E-7,0
TJS-23,2025-306A,2026-06-05T15:12:31.114080,1.00272616,.0004998,5.6138,297.5506,163.6024,196.5125,0,U,67226,999,177,0,.27E-6,0
FENGYUN 4C,2025-312A,2026-06-05T00:27:41.571360,1.00270463,.00006365,0.0395,149.4658,17.9429,225.9691,0,U,67246,999,165,0,-.311E-5,0
SHIJIAN-29A (SJ-29A),2025-315A,2026-06-05T18:41:12.710112,1.00270166,.0003353,3.3681,95.3928,19.4654,132.9108,0,U,67302,999,150,0,-.55E-6,0
SHIJIAN-29B (SJ-29B),2025-315C,2026-06-05T18:41:12.774912,1.00270176,.0003575,3.3671,95.3839,21.9532,130.4760,0,U,67403,999,157,0,-.55E-6,0
ELEKTRO-L 5,2026-028A,2026-06-05T02:01:47.686944,1.00271294,.000154,0.2741,307.5565,183.1862,229.2766,0,U,67756,999,113,0,-.85E-6,0
JAM-E JAM 1,2026-028B,2026-06-05T17:05:59.448768,1.00270739,.0000763,0.2851,298.9593,301.3817,304.1996,0,U,67757,999,100,0,.168E-5,0
